[{"OBJECT_NAME":"STARLINK-4775","OBJECT_ID":"2022-119BA","EPOCH":"2026-03-09T22:45:39.789216","MEAN_MOTION":15.08826653,"ECCENTRICITY":0.00010866,"INCLINATION":53.2175,"RA_OF_ASC_NODE":298.0094,"ARG_OF_PERICENTER":91.4028,"MEAN_ANOMALY":268.7088,"EPHEMERIS_TYPE":0,"CLASSIFICATION_TYPE":"U","NORAD_CAT_ID":53934,"ELEMENT_SET_NO":999,"REV_AT_EPOCH":19209,"BSTAR":0.00014052726,"MEAN_MOTION_DOT":1.949e-5,"MEAN_MOTION_DDOT":0},{"OBJECT_NAME":"CZ-4B DEB","OBJECT_ID":"2004-035J","EPOCH":"2026-03-07T20:16:16.859712","MEAN_MOTION":15.09572175,"ECCENTRICITY":0.00105031,"INCLINATION":97.5432,"RA_OF_ASC_NODE":82.067,"ARG_OF_PERICENTER":356.2804,"MEAN_ANOMALY":3.8346,"EPHEMERIS_TYPE":0,"CLASSIFICATION_TYPE":"U","NORAD_CAT_ID":29042,"ELEMENT_SET_NO":999,"REV_AT_EPOCH":69625,"BSTAR":0.00031812935,"MEAN_MOTION_DOT":5.052e-5,"MEAN_MOTION_DDOT":0}]
